[{"OBJECT_NAME":"SHIJIAN-26 (SJ-26)","OBJECT_ID":"2025-115A","EPOCH":"2026-03-09T23:52:58.004256","MEAN_MOTION":15.22558479,"ECCENTRICITY":0.00187049,"INCLINATION":97.4605,"RA_OF_ASC_NODE":148.1925,"ARG_OF_PERICENTER":345.0182,"MEAN_ANOMALY":15.0498,"EPHEMERIS_TYPE":0,"CLASSIFICATION_TYPE":"U","NORAD_CAT_ID":64199,"ELEMENT_SET_NO":999,"REV_AT_EPOCH":4334,"BSTAR":0.00030941368,"MEAN_MOTION_DOT":7.145e-5,"MEAN_MOTION_DDOT":0},{"OBJECT_NAME":"OBJECT AA","OBJECT_ID":"2025-313AA","EPOCH":"2026-03-09T22:17:16.257696","MEAN_MOTION":15.21952623,"ECCENTRICITY":0.0014221,"INCLINATION":97.4008,"RA_OF_ASC_NODE":145.2054,"ARG_OF_PERICENTER":358.5401,"MEAN_ANOMALY":1.5791,"EPHEMERIS_TYPE":0,"CLASSIFICATION_TYPE":"U","NORAD_CAT_ID":67272,"ELEMENT_SET_NO":999,"REV_AT_EPOCH":1085,"BSTAR":0.00056563346,"MEAN_MOTION_DOT":0.00012874,"MEAN_MOTION_DDOT":0}]
